STARLINK-4023           
1 53135U 22083D   26015.35878146  .00000952  00000+0  77896-4 0  9994
2 53135  53.2180  53.5321 0001189  73.7263 286.3860 15.08848690194156
STARLINK-4152           
1 53136U 22083E   26016.08373098  .00000041  00000+0  20640-4 0  9996
2 53136  53.2182  50.2773 0001345  84.3212 275.7934 15.08841648194262
STARLINK-4145           
1 53137U 22083F   26016.07637464  .00001887  00000+0  13661-3 0  9999
2 53137  53.2188  50.3102 0001440  89.7410 270.3747 15.08835530193277
STARLINK-4141           
1 53138U 22083G   26016.07501366 -.00000421  00000+0 -83628-5 0  9998
2 53138  53.2170  45.4990 0001281  84.6657 275.4481 15.08841313194110
STARLINK-4185           
1 53139U 22083H   26015.33669452 -.00000092  00000+0  12325-4 0  9996
2 53139  53.2195  53.6328 0001395  87.2818 272.8334 15.08837536193162
STARLINK-4170           
1 53140U 22083J   26015.47285614 -.00000198  00000+0  56204-5 0  9999
2 53140  53.2189  53.0225 0001339  97.1448 262.9697 15.08836237193185
STARLINK-4103           
1 53141U 22083K   26016.24933401 -.00000528  00000+0 -15069-4 0  9991
2 53141  53.2188  49.5369 0001259  94.2213 265.8923 15.08837471193302
STARLINK-4101           
1 53142U 22083L   26016.25764724 -.00000473  00000+0 -11625-4 0  9996
2 53142  53.2189  49.4695 0001366  95.4854 264.6294 15.08839543193319
STARLINK-4102           
1 53143U 22083M   26016.24565253 -.00000417  00000+0 -80954-5 0  9992
2 53143  53.2181  49.5507 0001312  89.9337 270.1806 15.08839008193306
STARLINK-4100           
1 53144U 22083N   26016.25669291  .00000027  00000+0  19794-4 0  9999
2 53144  53.2181  49.5099 0001411  87.4279 272.6875 15.08837234193303
STARLINK-4106           
1 53145U 22083P   26016.23829213  .00000860  00000+0  72140-4 0  9999
2 53145  53.2188  49.5839 0001281  98.1206 261.9931 15.08831296193303
STARLINK-4094           
1 53147U 22083R   26016.23460832 -.00000848  00000+0 -35184-4 0  9994
2 53147  53.2188  49.6003 0001225  83.0573 277.0559 15.08842871193953
STARLINK-4021           
1 53149U 22083T   26016.19603752  .00001571  00000+0  11682-3 0  9999
2 53149  53.2181  39.9756 0001436  96.3006 263.8150 15.08830088193437
STARLINK-4038           
1 53150U 22083U   26016.33334491  .00475009  00000+0  34954-2 0  9995
2 53150  53.2169  22.6291 0001201  71.8305 353.9473 15.71115770  5657
STARLINK-4040           
1 53151U 22083V   26015.47744333  .00000499  00000+0  49440-4 0  9995
2 53151  53.2186  42.9994 0001381  86.6571 273.4579 15.08846496193321
STARLINK-4045           
1 53152U 22083W   26016.21344780 -.00000057  00000+0  14524-4 0  9997
2 53152  53.2195  39.6964 0001462  86.9192 273.1968 15.08841673193437
STARLINK-4098           
1 53153U 22083X   26016.20240864 -.00000482  00000+0 -12183-4 0  9997
2 53153  53.2176  39.7435 0001363  81.8849 278.2298 15.08842742193434
STARLINK-4077           
1 53154U 22083Y   26016.20976982 -.00000035  00000+0  15912-4 0  9991
2 53154  53.2185  39.7108 0001340  89.7201 270.3945 15.08838044193438
STARLINK-4088           
1 53155U 22083Z   26016.32753020 -.00000405  00000+0 -73610-5 0  9993
2 53155  53.2183  39.1839 0001323  88.3845 271.7299 15.08841635194092
STARLINK-4087           
1 53156U 22083AA  26016.31647538 -.00000116  00000+0  10812-4 0  9991
2 53156  53.2181  39.1071 0001235  96.3090 263.8042 15.08843004193451
STARLINK-4054           
1 53158U 22083AC  26016.33120781  .00000459  00000+0  46924-4 0  9993
2 53158  53.2177  39.1666 0001383  79.1532 280.9616 15.08847821193450
STARLINK-4111           
1 53159U 22083AD  26016.31281244 -.00000105  00000+0  11487-4 0  9999
2 53159  53.2174  39.2494 0001225 101.2678 258.8452 15.08843435193450
STARLINK-4096           
1 53160U 22083AE  26016.32384592 -.00000953  00000+0 -41774-4 0  9996
2 53160  53.2171  39.1999 0001617  83.1947 276.9229 15.08845022193457
STARLINK-4055           
1 53161U 22083AF  26016.23553276  .00000035  00000+0  20321-4 0  9998
2 53161  53.2200  39.5975 0001605  88.0552 272.0624 15.08839702193445
STARLINK-4114           
1 53162U 22083AG  26016.31746432  .00004170  00000+0  27993-3 0  9991
2 53162  53.2183  39.2391 0001377  93.5847 266.5302 15.08842296193453
STARLINK-4104           
1 53163U 22083AH  26016.24290845 -.00000037  00000+0  15759-4 0  9993
2 53163  53.2190  39.7072 0001388  86.5129 273.6022 15.08840779193441
STARLINK-4116           
1 53164U 22083AJ  26016.23921195  .00000455  00000+0  46656-4 0  9995
2 53164  53.2192  39.5802 0001479  93.7166 266.3996 15.08843465193449
STARLINK-4090           
1 53165U 22083AK  26016.22449193  .00000047  00000+0  21015-4 0  9997
2 53165  53.2188  39.6470 0001230  89.7248 270.3885 15.08838917193446
STARLINK-4110           
1 53166U 22083AL  26016.22175408 -.00000033  00000+0  16011-4 0  9999
2 53166  53.2188  39.5581 0001374  88.1877 271.9273 15.08839325193441
STARLINK-3683           
1 53167U 22083AM  26016.30867965  .00002078  00000+0  14860-3 0  9994
2 53167  53.2197  24.2581 0001386  83.9831 276.1320 15.08841528193650
STARLINK-4105           
1 53168U 22083AN  26016.22817423 -.00000134  00000+0  96654-5 0  9995
2 53168  53.2207  39.6314 0001474  90.6484 269.4677 15.08837390193443
STARLINK-4117           
1 53169U 22083AP  26016.28663653 -.00000976  00000+0 -43237-4 0  9999
2 53169  53.2162  24.6289 0001180  84.6413 275.4713 15.08834478193642
STARLINK-4095           
1 53170U 22083AQ  26016.25622501 -.00000935  00000+0 -40655-4 0  9991
2 53170  53.2190  34.4547 0001445  79.9828 280.1327 15.08840451193510
STARLINK-4052           
1 53171U 22083AR  26016.23090333  .00000263  00000+0  34610-4 0  9998
2 53171  53.2179   9.3767 0001368  88.2380 271.8768 15.08835897193854
STARLINK-4299           
1 53172U 22083AS  26016.31509857 -.00000445  00000+0 -98835-5 0  9998
2 53172  53.2175  34.1517 0001356  81.3267 278.7879 15.08841695193510
STARLINK-4300           
1 53173U 22083AT  26016.26910637 -.00000014  00000+0  17210-4 0  9993
2 53173  53.2198  14.4368 0001358  88.6934 271.4214 15.08844752193783
STARLINK-4205           
1 53174U 22083AU  26016.22451750 -.00002671  00000+0 -14976-3 0  9993
2 53174  53.2195  49.5820 0001774  61.3789 298.7381 15.08846353193293
STARLINK-4292           
1 53175U 22083AV  26016.22725109 -.00000525  00000+0 -14907-4 0  9997
2 53175  53.2163  49.6313 0001164  83.1174 276.9951 15.08839444193294
STARLINK-4294           
1 53176U 22083AW  26016.29761808 -.00000379  00000+0 -57381-5 0  9992
2 53176  53.2178  24.2290 0001408  83.4960 276.6193 15.08842766193657
STARLINK-4298           
1 53177U 22083AX  26016.26174744 -.00000051  00000+0  14915-4 0  9998
2 53177  53.2179  14.4687 0001397  86.4305 273.6847 15.08844211193787
STARLINK-4280           
1 53178U 22083AY  26016.22081326  .00001161  00000+0  90992-4 0  9999
2 53178  53.2190  39.6619 0001416  99.2004 260.9149 15.08841204193429
STARLINK-4276           
1 53179U 22083AZ  26016.21340328 -.00000322  00000+0 -21548-5 0  9991
2 53179  53.2185 359.2941 0001462  88.0633 272.0527 15.08839579193996
STARLINK-4258           
1 53180U 22083BA  26016.30543691 -.00000298  00000+0 -63536-6 0  9997
2 53180  53.2188 359.1546 0001449  81.1883 278.9274 15.08840737194002
STARLINK-4278           
1 53182U 22083BC  26016.25806844  .00000122  00000+0  25770-4 0  9995
2 53182  53.2186  14.4856 0001385  83.0962 277.0188 15.08843374193783
STARLINK-4268           
1 53183U 22083BD  26016.26633861  .00000260  00000+0  34439-4 0  9999
2 53183  53.2186   4.3708 0001395  87.0150 273.1002 15.08840512193921
STARLINK-4257           
1 53184U 22083BE  26016.20972309 -.00000355  00000+0 -42076-5 0  9991
2 53184  53.2184 359.2968 0001471  90.2399 269.8762 15.08836606194000
STARLINK-4391           
1 53189U 22084A   26016.05520460 -.00000018  00000+0  29566-5 0  9991
2 53189  97.6034  79.2864 0001140 100.4508 259.6847 15.05650851192130
STARLINK-4332           
1 53190U 22084B   26016.13551666 -.00000337  00000+0 -19159-4 0  9995
2 53190  97.6028  79.4045 0000513  98.8825 261.2460 15.05645450192143
STARLINK-4369           
1 53191U 22084C   26016.05347546  .00000386  00000+0  34559-4 0  9990
2 53191  97.6053  78.6760 0000430 193.9538 166.1675 15.01261061191411
STARLINK-4375           
1 53192U 22084D   26016.16598432 -.00000179  00000+0 -82065-5 0  9993
2 53192  97.6048  79.4308 0001361  86.1961 273.9421 15.05643995192141
STARLINK-4351           
1 53193U 22084E   26016.05717697  .00000462  00000+0  40521-4 0  9991
2 53193  97.6063  78.6742 0000697 237.3665 122.7492 15.01261023192439
STARLINK-4382           
1 53194U 22084F   26015.98320781  .00001067  00000+0  78164-4 0  9993
2 53194  97.6045  79.2215 0001420  82.5835 277.5553 15.05648960191446
STARLINK-4404           
1 53195U 22084G   26016.17410012  .00001575  00000+0  97454-5 0  9991
2 53195  97.6290  96.5791 0001931 303.6942  56.4140 15.79069961193181
STARLINK-4407           
1 53196U 22084H   26016.20756436  .00001015  00000+0  65899-5 0  9996
2 53196  97.6269  97.1500 0001420 286.3879  73.7231 15.79042829193202
STARLINK-4403           
1 53197U 22084J   26016.17937710  .00000476  00000+0  41606-4 0  9998
2 53197  97.6032  78.8031 0002103  67.3193 292.8253 15.01262777191433
STARLINK-4385           
1 53198U 22084K   26016.18307710  .00001157  00000+0  94602-4 0  9992
2 53198  97.6041  78.8055 0001886  82.3022 277.8416 15.01265087192099
STARLINK-4395           
1 53199U 22084L   26016.15766401 -.00000310  00000+0 -17260-4 0  9993
2 53199  97.6042  79.4246 0000857 112.4062 247.7256 15.05647711191477
STARLINK-4417           
1 53200U 22084M   26016.17704644  .00000152  00000+0  14721-4 0  9990
2 53200  97.6051  79.4090 0000803 103.1209 257.0108 15.05649752192139
STARLINK-4405           
1 53201U 22084N   26016.12720725  .00003665  00000+0  25804-3 0  9999
2 53201  97.6030  79.4573 0000676 125.4003 234.7287 15.05656564191475
